O3B MPOWER F1           
1 54755U 22174A   24188.52748484 -.00000028  00000+0  00000+0 0  9996
2 54755   0.0603 352.0676 0006830 111.9871 249.4336  5.00114130 29806
